IRIDIUM 173             
1 43925U 19002D   26116.76730272  .00000027  00000+0  25119-5 0  9996
2 43925  86.4013  15.0528 0002190  87.9793 272.1653 14.34217606381588
IRIDIUM 169             
1 43926U 19002E   26116.85053015  .00000291  00000+0  88630-4 0  9999
2 43926  86.4243  46.6455 0002827  92.6774 267.4748 14.38608593382847
IRIDIUM 172             
1 43927U 19002F   26116.76095716  .00000009  00000+0 -39655-5 0  9996
2 43927  86.4008  15.0630 0001996  84.8426 275.2998 14.34218936381594
IRIDIUM 175             
1 43928U 19002G   26116.77440868  .00000108  00000+0  25901-4 0  9997
2 43928  86.4488 312.0277 0004820  55.9027 304.2631 14.43590359391566
IRIDIUM 171             
1 43929U 19002H   26116.81170132 -.00000017  00000+0 -13117-4 0  9994
2 43929  86.4019  15.3422 0002195  82.7178 277.4267 14.34217303381593
IRIDIUM 170             
1 43930U 19002J   26116.78158470  .00000856  00000+0  13187-3 0  9998
2 43930  86.6135  15.0337 0002246  84.0481 276.0992 14.72254990391694
IRIDIUM 167             
1 43931U 19002K   26116.80535883 -.00000008  00000+0 -10097-4 0  9998
2 43931  86.4011  15.0666 0002381  81.9017 278.2449 14.34217500381595
IRIDIUM 181             
1 56726U 23068S   26116.94136311  .00000335  00000+0  93460-4 0  9995
2 56726  86.4476  78.2089 0002136  80.4567 279.6876 14.43310437155049
IRIDIUM 177             
1 56727U 23068T   26116.74265275  .00001094  00000+0  14052-3 0  9998
2 56727  86.1993 353.2270 0002290  92.3718 267.7765 14.80236484158756
IRIDIUM 174             
1 56728U 23068U   26116.90515602  .00000437  00000+0  65466-4 0  9995
2 56728  86.6144  15.1241 0002362  90.5464 269.6023 14.72253455158475
IRIDIUM 178             
1 56729U 23068V   26116.86685747  .00001375  00000+0  17752-3 0  9995
2 56729  86.6558  46.7980 0002453  76.5152 283.6343 14.80234388158771
IRIDIUM 179             
1 56730U 23068W   26116.86148686  .00001107  00000+0  14230-3 0  9994
2 56730  86.6786  55.6277 0002860  82.0035 278.1511 14.80236469158776
