[{"OBJECT_NAME":"IRIDIUM 173","OBJECT_ID":"2019-002D","EPOCH":"2026-04-26T18:24:54.955008","MEAN_MOTION":14.34217606,"ECCENTRICITY":0.00021905,"INCLINATION":86.4013,"RA_OF_ASC_NODE":15.0528,"ARG_OF_PERICENTER":87.9793,"MEAN_ANOMALY":272.1653,"EPHEMERIS_TYPE":0,"CLASSIFICATION_TYPE":"U","NORAD_CAT_ID":43925,"ELEMENT_SET_NO":999,"REV_AT_EPOCH":38158,"BSTAR":2.511898e-6,"MEAN_MOTION_DOT":2.7e-7,"MEAN_MOTION_DDOT":0},{"OBJECT_NAME":"IRIDIUM 169","OBJECT_ID":"2019-002E","EPOCH":"2026-04-26T20:24:45.804960","MEAN_MOTION":14.38608593,"ECCENTRICITY":0.00028271,"INCLINATION":86.4243,"RA_OF_ASC_NODE":46.6455,"ARG_OF_PERICENTER":92.6774,"MEAN_ANOMALY":267.4748,"EPHEMERIS_TYPE":0,"CLASSIFICATION_TYPE":"U","NORAD_CAT_ID":43926,"ELEMENT_SET_NO":999,"REV_AT_EPOCH":38284,"BSTAR":8.8630418e-5,"MEAN_MOTION_DOT":2.91e-6,"MEAN_MOTION_DDOT":0},{"OBJECT_NAME":"IRIDIUM 172","OBJECT_ID":"2019-002F","EPOCH":"2026-04-26T18:15:46.698624","MEAN_MOTION":14.34218936,"ECCENTRICITY":0.00019965,"INCLINATION":86.4008,"RA_OF_ASC_NODE":15.063,"ARG_OF_PERICENTER":84.8426,"MEAN_ANOMALY":275.2998,"EPHEMERIS_TYPE":0,"CLASSIFICATION_TYPE":"U","NORAD_CAT_ID":43927,"ELEMENT_SET_NO":999,"REV_AT_EPOCH":38159,"BSTAR":-3.965518e-6,"MEAN_MOTION_DOT":9.0e-8,"MEAN_MOTION_DDOT":0},{"OBJECT_NAME":"IRIDIUM 175","OBJECT_ID":"2019-002G","EPOCH":"2026-04-26T18:35:08.909952","MEAN_MOTION":14.43590359,"ECCENTRICITY":0.00048207,"INCLINATION":86.4488,"RA_OF_ASC_NODE":312.0277,"ARG_OF_PERICENTER":55.9027,"MEAN_ANOMALY":304.2631,"EPHEMERIS_TYPE":0,"CLASSIFICATION_TYPE":"U","NORAD_CAT_ID":43928,"ELEMENT_SET_NO":999,"REV_AT_EPOCH":39156,"BSTAR":2.5900545e-5,"MEAN_MOTION_DOT":1.08e-6,"MEAN_MOTION_DDOT":0},{"OBJECT_NAME":"IRIDIUM 171","OBJECT_ID":"2019-002H","EPOCH":"2026-04-26T19:28:50.994048","MEAN_MOTION":14.34217303,"ECCENTRICITY":0.00021958,"INCLINATION":86.4019,"RA_OF_ASC_NODE":15.3422,"ARG_OF_PERICENTER":82.7178,"MEAN_ANOMALY":277.4267,"EPHEMERIS_TYPE":0,"CLASSIFICATION_TYPE":"U","NORAD_CAT_ID":43929,"ELEMENT_SET_NO":999,"REV_AT_EPOCH":38159,"BSTAR":-1.3117402e-5,"MEAN_MOTION_DOT":-1.7e-7,"MEAN_MOTION_DDOT":0},{"OBJECT_NAME":"IRIDIUM 170","OBJECT_ID":"2019-002J","EPOCH":"2026-04-26T18:45:28.918080","MEAN_MOTION":14.7225499,"ECCENTRICITY":0.00022462,"INCLINATION":86.6135,"RA_OF_ASC_NODE":15.0337,"ARG_OF_PERICENTER":84.0481,"MEAN_ANOMALY":276.0992,"EPHEMERIS_TYPE":0,"CLASSIFICATION_TYPE":"U","NORAD_CAT_ID":43930,"ELEMENT_SET_NO":999,"REV_AT_EPOCH":39169,"BSTAR":0.00013186582,"MEAN_MOTION_DOT":8.56e-6,"MEAN_MOTION_DDOT":0},{"OBJECT_NAME":"IRIDIUM 167","OBJECT_ID":"2019-002K","EPOCH":"2026-04-26T19:19:43.002912","MEAN_MOTION":14.342175,"ECCENTRICITY":0.00023814,"INCLINATION":86.4011,"RA_OF_ASC_NODE":15.0666,"ARG_OF_PERICENTER":81.9017,"MEAN_ANOMALY":278.2449,"EPHEMERIS_TYPE":0,"CLASSIFICATION_TYPE":"U","NORAD_CAT_ID":43931,"ELEMENT_SET_NO":999,"REV_AT_EPOCH":38159,"BSTAR":-1.009731e-5,"MEAN_MOTION_DOT":-8.0e-8,"MEAN_MOTION_DDOT":0},{"OBJECT_NAME":"IRIDIUM 181","OBJECT_ID":"2023-068S","EPOCH":"2026-04-26T22:35:33.772704","MEAN_MOTION":14.43310437,"ECCENTRICITY":0.00021361,"INCLINATION":86.4476,"RA_OF_ASC_NODE":78.2089,"ARG_OF_PERICENTER":80.4567,"MEAN_ANOMALY":279.6876,"EPHEMERIS_TYPE":0,"CLASSIFICATION_TYPE":"U","NORAD_CAT_ID":56726,"ELEMENT_SET_NO":999,"REV_AT_EPOCH":15504,"BSTAR":9.3459759e-5,"MEAN_MOTION_DOT":3.35e-6,"MEAN_MOTION_DDOT":0},{"OBJECT_NAME":"IRIDIUM 177","OBJECT_ID":"2023-068T","EPOCH":"2026-04-26T17:49:25.197600","MEAN_MOTION":14.80236484,"ECCENTRICITY":0.00022902,"INCLINATION":86.1993,"RA_OF_ASC_NODE":353.227,"ARG_OF_PERICENTER":92.3718,"MEAN_ANOMALY":267.7765,"EPHEMERIS_TYPE":0,"CLASSIFICATION_TYPE":"U","NORAD_CAT_ID":56727,"ELEMENT_SET_NO":999,"REV_AT_EPOCH":15875,"BSTAR":0.00014051686,"MEAN_MOTION_DOT":1.094e-5,"MEAN_MOTION_DDOT":0},{"OBJECT_NAME":"IRIDIUM 174","OBJECT_ID":"2023-068U","EPOCH":"2026-04-26T21:43:25.480128","MEAN_MOTION":14.72253455,"ECCENTRICITY":0.00023622,"INCLINATION":86.6144,"RA_OF_ASC_NODE":15.1241,"ARG_OF_PERICENTER":90.5464,"MEAN_ANOMALY":269.6023,"EPHEMERIS_TYPE":0,"CLASSIFICATION_TYPE":"U","NORAD_CAT_ID":56728,"ELEMENT_SET_NO":999,"REV_AT_EPOCH":15847,"BSTAR":6.5465675e-5,"MEAN_MOTION_DOT":4.37e-6,"MEAN_MOTION_DDOT":0},{"OBJECT_NAME":"IRIDIUM 178","OBJECT_ID":"2023-068V","EPOCH":"2026-04-26T20:48:16.485408","MEAN_MOTION":14.80234388,"ECCENTRICITY":0.00024539,"INCLINATION":86.6558,"RA_OF_ASC_NODE":46.798,"ARG_OF_PERICENTER":76.5152,"MEAN_ANOMALY":283.6343,"EPHEMERIS_TYPE":0,"CLASSIFICATION_TYPE":"U","NORAD_CAT_ID":56729,"ELEMENT_SET_NO":999,"REV_AT_EPOCH":15877,"BSTAR":0.00017751933,"MEAN_MOTION_DOT":1.375e-5,"MEAN_MOTION_DDOT":0},{"OBJECT_NAME":"IRIDIUM 179","OBJECT_ID":"2023-068W","EPOCH":"2026-04-26T20:40:32.464704","MEAN_MOTION":14.80236469,"ECCENTRICITY":0.00028601,"INCLINATION":86.6786,"RA_OF_ASC_NODE":55.6277,"ARG_OF_PERICENTER":82.0035,"MEAN_ANOMALY":278.1511,"EPHEMERIS_TYPE":0,"CLASSIFICATION_TYPE":"U","NORAD_CAT_ID":56730,"ELEMENT_SET_NO":999,"REV_AT_EPOCH":15877,"BSTAR":0.0001422964,"MEAN_MOTION_DOT":1.107e-5,"MEAN_MOTION_DDOT":0}]
